{"type": "FeatureCollection", "features": [ {"type": "Feature", "properties": {"norad_id": 41549, "name": "GSAT0211 (GALILEO 14)", "group": "gnss", "lat": -36.231600755025966, "lon": 77.7441758318338, "alt_km": 23236.15437500828, "timestamp": "2025-12-02T15:49:07.431399+00:00", "meta": {"OBJECT_NAME": "GSAT0211 (GALILEO 14)", "OBJECT_ID": "2016-030A", "EPOCH": "2025-12-01T16:54:04.942368", "MEAN_MOTION": 1.70472896, "ECCENTRICITY": 0.00038995, "INCLINATION": 55.1563, "RA_OF_ASC_NODE": 227.1275, "ARG_OF_PERICENTER": 10.5053, "MEAN_ANOMALY": 349.5828, "EPHEMERIS_TYPE": 0, "CLASSIFICATION_TYPE": "U", "NORAD_CAT_ID": 41549, "ELEMENT_SET_NO": 999, "REV_AT_EPOCH": 5930, "BSTAR": 0, "MEAN_MOTION_DOT": 3.3e-07, "MEAN_MOTION_DDOT": 0}, "tle": {"line1": "1 41549U 16030A   25335.70422387  .00000033  00000+0  00000+0 0  9998", "line2": "2 41549  55.1563 227.1275 0003899  10.5053 349.5828  1.70472896 59309"}}, "geometry": {"type": "Point", "coordinates": [77.7441758318338, -36.231600755025966]}}, {"type": "Feature", "properties": {"norad_id": 41550, "name": "GSAT0210 (GALILEO 13)", "group": "gnss", "lat": 49.583719617485144, "lon": -78.12965004269907, "alt_km": 23219.97025343986, "timestamp": "2025-12-02T15:49:07.431414+00:00", "meta": {"OBJECT_NAME": "GSAT0210 (GALILEO 13)", "OBJECT_ID": "2016-030B", "EPOCH": "2025-12-01T09:00:06.320160", "MEAN_MOTION": 1.70473417, "ECCENTRICITY": 0.00012162, "INCLINATION": 55.1557, "RA_OF_ASC_NODE": 227.1346, "ARG_OF_PERICENTER": 241.6156, "MEAN_ANOMALY": 118.4503, "EPHEMERIS_TYPE": 0, "CLASSIFICATION_TYPE": "U", "NORAD_CAT_ID": 41550, "ELEMENT_SET_NO": 999, "REV_AT_EPOCH": 5929, "BSTAR": 0, "MEAN_MOTION_DOT": 3.2e-07, "MEAN_MOTION_DDOT": 0}, "tle": {"line1": "1 41550U 16030B   25335.37507315  .00000032  00000+0  00000+0 0  9997", "line2": "2 41550  55.1557 227.1346 0001216 241.6156 118.4503  1.70473417 59296"}}, "geometry": {"type": "Point", "coordinates": [-78.12965004269907, 49.583719617485144]}}, {"type": "Feature", "properties": {"norad_id": 41586, "name": "BEIDOU-2 G7 (C03)", "group": "gnss", "lat": -0.2222545364876925, "lon": 59.491718558455645, "alt_km": 35767.66053438842, "timestamp": "2025-12-02T15:49:07.431426+00:00", "meta": {"OBJECT_NAME": "BEIDOU-2 G7 (C03)", "OBJECT_ID": "2016-037A", "EPOCH": "2025-12-02T07:27:38.871648", "MEAN_MOTION": 1.00272255, "ECCENTRICITY": 0.00044622, "INCLINATION": 1.7294, "RA_OF_ASC_NODE": 67.6752, "ARG_OF_PERICENTER": 5.5089, "MEAN_ANOMALY": 220.6295, "EPHEMERIS_TYPE": 0, "CLASSIFICATION_TYPE": "U", "NORAD_CAT_ID": 41586, "ELEMENT_SET_NO": 999, "REV_AT_EPOCH": 491, "BSTAR": 0, "MEAN_MOTION_DOT": -3.33e-06, "MEAN_MOTION_DDOT": 0}, "tle": {"line1": "1 41586U 16037A   25336.31086657 -.00000333  00000+0  00000+0 0  9994", "line2": "2 41586   1.7294  67.6752 0004462   5.5089 220.6295  1.00272255  4919"}}, "geometry": {"type": "Point", "coordinates": [59.491718558455645, -0.2222545364876925]}}, {"type": "Feature", "properties": {"norad_id": 41589, "name": "EUTELSAT 117 WEST B (WAAS/PRN 131)", "group": "gnss", "lat": 0.013566325014029901, "lon": -167.9746728155827, "alt_km": 35785.932213797874, "timestamp": "2025-12-02T15:49:07.431442+00:00", "meta": {"OBJECT_NAME": "EUTELSAT 117 WEST B (WAAS/PRN 131)", "OBJECT_ID": "2016-038B", "EPOCH": "2025-12-01T14:58:10.977024", "MEAN_MOTION": 1.00272248, "ECCENTRICITY": 1.075e-05, "INCLINATION": 0.0065, "RA_OF_ASC_NODE": 141.8344, "ARG_OF_PERICENTER": 143.4656, "MEAN_ANOMALY": 252.9964, "EPHEMERIS_TYPE": 0, "CLASSIFICATION_TYPE": "U", "NORAD_CAT_ID": 41589, "ELEMENT_SET_NO": 999, "REV_AT_EPOCH": 3468, "BSTAR": 0, "MEAN_MOTION_DOT": 1e-07, "MEAN_MOTION_DDOT": 0}, "tle": {"line1": "1 41589U 16038B   25335.62373816  .00000010  00000+0  00000+0 0  9998", "line2": "2 41589   0.0065 141.8344 0000107 143.4656 252.9964  1.00272248 34686"}}, "geometry": {"type": "Point", "coordinates": [-167.9746728155827, 0.013566325014029901]}}, {"type": "Feature", "properties": {"norad_id": 41859, "name": "GSAT0207 (GALILEO 15)", "group": "gnss", "lat": -53.37162638442303, "lon": -5.223650633063646, "alt_km": 23225.71454926993, "timestamp": "2025-12-02T15:49:07.431455+00:00", "meta": {"OBJECT_NAME": "GSAT0207 (GALILEO 15)", "OBJECT_ID": "2016-069A", "EPOCH": "2025-11-30T11:31:32.297952", "MEAN_MOTION": 1.70474248, "ECCENTRICITY": 0.00020596, "INCLINATION": 55.375, "RA_OF_ASC_NODE": 106.5899, "ARG_OF_PERICENTER": 325.7449, "MEAN_ANOMALY": 34.2162, "EPHEMERIS_TYPE": 0, "CLASSIFICATION_TYPE": "U", "NORAD_CAT_ID": 41859, "ELEMENT_SET_NO": 999, "REV_AT_EPOCH": 5601, "BSTAR": 0, "MEAN_MOTION_DOT": 4.7e-07, "MEAN_MOTION_DDOT": 0}, "tle": {"line1": "1 41859U 16069A   25334.48023493  .00000047  00000+0  00000+0 0  9998", "line2": "2 41859  55.3750 106.5899 0002059 325.7449  34.2162  1.70474248 56019"}}, "geometry": {"type": "Point", "coordinates": [-5.223650633063646, -53.37162638442303]}}, {"type": "Feature", "properties": {"norad_id": 41860, "name": "GSAT0212 (GALILEO 16)", "group": "gnss", "lat": -10.631977674060487, "lon": 99.05433410334498, "alt_km": 23219.27695404049, "timestamp": "2025-12-02T15:49:07.431482+00:00", "meta": {"OBJECT_NAME": "GSAT0212 (GALILEO 16)", "OBJECT_ID": "2016-069B", "EPOCH": "2025-12-01T12:10:10.642368", "MEAN_MOTION": 1.70474441, "ECCENTRICITY": 0.00022648, "INCLINATION": 55.3731, "RA_OF_ASC_NODE": 106.5568, "ARG_OF_PERICENTER": 35.1599, "MEAN_ANOMALY": 324.8229, "EPHEMERIS_TYPE": 0, "CLASSIFICATION_TYPE": "U", "NORAD_CAT_ID": 41860, "ELEMENT_SET_NO": 999, "REV_AT_EPOCH": 5628, "BSTAR": 0, "MEAN_MOTION_DOT": 3.8e-07, "MEAN_MOTION_DDOT": 0}, "tle": {"line1": "1 41860U 16069B   25335.50706762  .00000038  00000+0  00000+0 0  9991", "line2": "2 41860  55.3731 106.5568 0002264  35.1599 324.8229  1.70474441 56285"}}, "geometry": {"type": "Point", "coordinates": [99.05433410334498, -10.631977674060487]}}, {"type": "Feature", "properties": {"norad_id": 41861, "name": "GSAT0213 (GALILEO 17)", "group": "gnss", "lat": 44.57780763686323, "lon": -116.37103618006213, "alt_km": 23222.58134630868, "timestamp": "2025-12-02T15:49:07.431495+00:00", "meta": {"OBJECT_NAME": "GSAT0213 (GALILEO 17)", "OBJECT_ID": "2016-069C", "EPOCH": "2025-12-01T20:59:28.954752", "MEAN_MOTION": 1.70474717, "ECCENTRICITY": 0.00020626, "INCLINATION": 55.3756, "RA_OF_ASC_NODE": 106.5542, "ARG_OF_PERICENTER": 284.0381, "MEAN_ANOMALY": 75.9044, "EPHEMERIS_TYPE": 0, "CLASSIFICATION_TYPE": "U", "NORAD_CAT_ID": 41861, "ELEMENT_SET_NO": 999, "REV_AT_EPOCH": 5615, "BSTAR": 0, "MEAN_MOTION_DOT": 3.5e-07, "MEAN_MOTION_DDOT": 0}, "tle": {"line1": "1 41861U 16069C   25335.87464068  .00000035  00000+0  00000+0 0  9999", "line2": "2 41861  55.3756 106.5542 0002062 284.0381  75.9044  1.70474717 56156"}}, "geometry": {"type": "Point", "coordinates": [-116.37103618006213, 44.57780763686323]}}, {"type": "Feature", "properties": {"norad_id": 41862, "name": "GSAT0214 (GALILEO 18)", "group": "gnss", "lat": 25.742591658106655, "lon": 125.95619205691217, "alt_km": 23219.542740302582, "timestamp": "2025-12-02T15:49:07.431505+00:00", "meta": {"OBJECT_NAME": "GSAT0214 (GALILEO 18)", "OBJECT_ID": "2016-069D", "EPOCH": "2025-11-29T16:11:01.864032", "MEAN_MOTION": 1.70474561, "ECCENTRICITY": 0.00010374, "INCLINATION": 55.3728, "RA_OF_ASC_NODE": 106.6081, "ARG_OF_PERICENTER": 291.61, "MEAN_ANOMALY": 68.3572, "EPHEMERIS_TYPE": 0, "CLASSIFICATION_TYPE": "U", "NORAD_CAT_ID": 41862, "ELEMENT_SET_NO": 999, "REV_AT_EPOCH": 5624, "BSTAR": 0, "MEAN_MOTION_DOT": 5.1e-07, "MEAN_MOTION_DDOT": 0}, "tle": {"line1": "1 41862U 16069D   25333.67432713  .00000051  00000+0  00000+0 0  9996", "line2": "2 41862  55.3728 106.6081 0001037 291.6100  68.3572  1.70474561 56248"}}, "geometry": {"type": "Point", "coordinates": [125.95619205691217, 25.742591658106655]}}, {"type": "Feature", "properties": {"norad_id": 42709, "name": "SES-15 (WAAS/PRN 133)", "group": "gnss", "lat": -0.021077544739068893, "lon": 179.82302249232853, "alt_km": 35786.552732512355, "timestamp": "2025-12-02T15:49:07.431517+00:00", "meta": {"OBJECT_NAME": "SES-15 (WAAS/PRN 133)", "OBJECT_ID": "2017-026A", "EPOCH": "2025-12-01T20:45:55.897056", "MEAN_MOTION": 1.00268137, "ECCENTRICITY": 3.156e-05, "INCLINATION": 0.0202, "RA_OF_ASC_NODE": 339.5889, "ARG_OF_PERICENTER": 268.6363, "MEAN_ANOMALY": 5.0585, "EPHEMERIS_TYPE": 0, "CLASSIFICATION_TYPE": "U", "NORAD_CAT_ID": 42709, "ELEMENT_SET_NO": 999, "REV_AT_EPOCH": 545, "BSTAR": 0, "MEAN_MOTION_DOT": 8.1e-07, "MEAN_MOTION_DDOT": 0}, "tle": {"line1": "1 42709U 17026A   25335.86523029  .00000081  00000+0  00000+0 0  9998", "line2": "2 42709   0.0202 339.5889 0000315 268.6363   5.0585  1.00268137  5451"}}, "geometry": {"type": "Point", "coordinates": [179.82302249232853, -0.021077544739068893]}}, {"type": "Feature", "properties": {"norad_id": 42738, "name": "QZS-2 (QZSS/PRN 194)", "group": "gnss", "lat": -10.281620756655386, "lon": 78.61184821426332, "alt_km": 34649.07730133754, "timestamp": "2025-12-02T15:49:07.431533+00:00", "meta": {"OBJECT_NAME": "QZS-2 (QZSS/PRN 194)", "OBJECT_ID": "2017-028A", "EPOCH": "2025-11-29T15:03:38.649888", "MEAN_MOTION": 1.0028652, "ECCENTRICITY": 0.07597264, "INCLINATION": 39.7358, "RA_OF_ASC_NODE": 246.0747, "ARG_OF_PERICENTER": 269.3342, "MEAN_ANOMALY": 280.5316, "EPHEMERIS_TYPE": 0, "CLASSIFICATION_TYPE": "U", "NORAD_CAT_ID": 42738, "ELEMENT_SET_NO": 999, "REV_AT_EPOCH": 562, "BSTAR": 0, "MEAN_MOTION_DOT": -1.6e-06, "MEAN_MOTION_DDOT": 0}, "tle": {"line1": "1 42738U 17028A   25333.62753067 -.00000160  00000+0  00000+0 0  9990", "line2": "2 42738  39.7358 246.0747 0759726 269.3342 280.5316  1.00286520  5628"}}, "geometry": {"type": "Point", "coordinates": [78.61184821426332, -10.281620756655386]}}]}